[{"OBJECT_NAME":"STARLINK-31292","OBJECT_ID":"2024-041H","EPOCH":"2026-03-08T16:52:06.264192","MEAN_MOTION":15.27564444,"ECCENTRICITY":6.26e-5,"INCLINATION":43.0018,"RA_OF_ASC_NODE":316.0203,"ARG_OF_PERICENTER":271.5751,"MEAN_ANOMALY":88.5029,"EPHEMERIS_TYPE":0,"CLASSIFICATION_TYPE":"U","NORAD_CAT_ID":59081,"ELEMENT_SET_NO":999,"REV_AT_EPOCH":11411,"BSTAR":0.00016992463,"MEAN_MOTION_DOT":4.415e-5,"MEAN_MOTION_DDOT":0},{"OBJECT_NAME":"REAL","OBJECT_ID":"2025-154G","EPOCH":"2026-03-09T17:20:09.670560","MEAN_MOTION":15.28408058,"ECCENTRICITY":0.00018528,"INCLINATION":97.4133,"RA_OF_ASC_NODE":137.2581,"ARG_OF_PERICENTER":118.5876,"MEAN_ANOMALY":241.555,"EPHEMERIS_TYPE":0,"CLASSIFICATION_TYPE":"U","NORAD_CAT_ID":64875,"ELEMENT_SET_NO":999,"REV_AT_EPOCH":3483,"BSTAR":0.0008290401,"MEAN_MOTION_DOT":0.00022901,"MEAN_MOTION_DDOT":0}]
