STARLINK-31292          
1 59081U 24041H   26067.70285028  .00004415  00000+0  16992-3 0  9990
2 59081  43.0018 316.0203 0000626 271.5751  88.5029 15.27564444114110
REAL                    
1 64875U 25154G   26068.72233414  .00022901  00000+0  82904-3 0  9994
2 64875  97.4133 137.2581 0001853 118.5876 241.5550 15.28408058 34830
